CCSDS_OMM_VERS = 2.0
CREATION_DATE  = 
ORIGINATOR     = 

OBJECT_NAME    = STARLINK-35983
OBJECT_ID      = 2025-283AA
CENTER_NAME    = EARTH
REF_FRAME      = TEME
TIME_SYSTEM    = UTC
MEAN_ELEMENT_THEORY = SGP/SGP4

EPOCH          = 2025-12-14T20:00:06.000192
MEAN_MOTION    = 15.89991693
ECCENTRICITY   = .00007083
INCLINATION    = 53.1544
RA_OF_ASC_NODE = 63.2119
ARG_OF_PERICENTER = 68.4513
MEAN_ANOMALY   = 309.5621

EPHEMERIS_TYPE = 0
CLASSIFICATION_TYPE = U
NORAD_CAT_ID   = 66902
ELEMENT_SET_NO = 999
REV_AT_EPOCH   = 276
BSTAR          = -.52917105E-2
MEAN_MOTION_DOT = -.1418586E-1
MEAN_MOTION_DDOT = 0

CCSDS_OMM_VERS = 2.0
CREATION_DATE  = 
ORIGINATOR     = 

OBJECT_NAME    = STARLINK-36077
OBJECT_ID      = 2025-283AB
CENTER_NAME    = EARTH
REF_FRAME      = TEME
TIME_SYSTEM    = UTC
MEAN_ELEMENT_THEORY = SGP/SGP4

EPOCH          = 2025-12-14T20:00:06.000192
MEAN_MOTION    = 15.90017544
ECCENTRICITY   = .00006803
INCLINATION    = 53.1547
RA_OF_ASC_NODE = 63.2070
ARG_OF_PERICENTER = 65.1821
MEAN_ANOMALY   = 315.1701

EPHEMERIS_TYPE = 0
CLASSIFICATION_TYPE = U
NORAD_CAT_ID   = 66903
ELEMENT_SET_NO = 999
REV_AT_EPOCH   = 276
BSTAR          = -.52881635E-2
MEAN_MOTION_DOT = -.1419381E-1
MEAN_MOTION_DDOT = 0

CCSDS_OMM_VERS = 2.0
CREATION_DATE  = 
ORIGINATOR     = 

OBJECT_NAME    = STARLINK-36059
OBJECT_ID      = 2025-283AC
CENTER_NAME    = EARTH
REF_FRAME      = TEME
TIME_SYSTEM    = UTC
MEAN_ELEMENT_THEORY = SGP/SGP4

EPOCH          = 2025-12-14T20:00:06.000192
MEAN_MOTION    = 15.90053410
ECCENTRICITY   = .00006741
INCLINATION    = 53.1544
RA_OF_ASC_NODE = 63.2016
ARG_OF_PERICENTER = 70.1182
MEAN_ANOMALY   = 312.7002

EPHEMERIS_TYPE = 0
CLASSIFICATION_TYPE = U
NORAD_CAT_ID   = 66904
ELEMENT_SET_NO = 999
REV_AT_EPOCH   = 276
BSTAR          = -.53437693E-2
MEAN_MOTION_DOT = -.1434639E-1
MEAN_MOTION_DDOT = 0

CCSDS_OMM_VERS = 2.0
CREATION_DATE  = 
ORIGINATOR     = 

OBJECT_NAME    = STARLINK-36075
OBJECT_ID      = 2025-283AD
CENTER_NAME    = EARTH
REF_FRAME      = TEME
TIME_SYSTEM    = UTC
MEAN_ELEMENT_THEORY = SGP/SGP4

EPOCH          = 2025-12-14T20:00:06.000192
MEAN_MOTION    = 15.90080420
ECCENTRICITY   = .00007074
INCLINATION    = 53.1547
RA_OF_ASC_NODE = 63.1973
ARG_OF_PERICENTER = 69.6780
MEAN_ANOMALY   = 315.2897

EPHEMERIS_TYPE = 0
CLASSIFICATION_TYPE = U
NORAD_CAT_ID   = 66905
ELEMENT_SET_NO = 999
REV_AT_EPOCH   = 276
BSTAR          = -.53242816E-2
MEAN_MOTION_DOT = -.1431851E-1
MEAN_MOTION_DDOT = 0

CCSDS_OMM_VERS = 2.0
CREATION_DATE  = 
ORIGINATOR     = 

OBJECT_NAME    = 1998-067XS
OBJECT_ID      = 1998-067XS
CENTER_NAME    = EARTH
REF_FRAME      = TEME
TIME_SYSTEM    = UTC
MEAN_ELEMENT_THEORY = SGP/SGP4

EPOCH          = 2025-12-14T03:31:53.110272
MEAN_MOTION    = 15.50662380
ECCENTRICITY   = .00034792
INCLINATION    = 51.6304
RA_OF_ASC_NODE = 135.4381
ARG_OF_PERICENTER = 209.6903
MEAN_ANOMALY   = 150.3889

EPHEMERIS_TYPE = 0
CLASSIFICATION_TYPE = U
NORAD_CAT_ID   = 66906
ELEMENT_SET_NO = 999
REV_AT_EPOCH   = 183
BSTAR          = .50586866E-3
MEAN_MOTION_DOT = .2921E-3
MEAN_MOTION_DDOT = 0

CCSDS_OMM_VERS = 2.0
CREATION_DATE  = 
ORIGINATOR     = 

OBJECT_NAME    = 1998-067XT
OBJECT_ID      = 1998-067XT
CENTER_NAME    = EARTH
REF_FRAME      = TEME
TIME_SYSTEM    = UTC
MEAN_ELEMENT_THEORY = SGP/SGP4

EPOCH          = 2025-12-14T20:26:51.623232
MEAN_MOTION    = 15.51744740
ECCENTRICITY   = .0004185
INCLINATION    = 51.6299
RA_OF_ASC_NODE = 131.8946
ARG_OF_PERICENTER = 238.5630
MEAN_ANOMALY   = 121.4951

EPHEMERIS_TYPE = 0
CLASSIFICATION_TYPE = U
NORAD_CAT_ID   = 66907
ELEMENT_SET_NO = 999
REV_AT_EPOCH   = 194
BSTAR          = .73206152E-3
MEAN_MOTION_DOT = .44251E-3
MEAN_MOTION_DDOT = 0

CCSDS_OMM_VERS = 2.0
CREATION_DATE  = 
ORIGINATOR     = 

OBJECT_NAME    = 1998-067XU
OBJECT_ID      = 1998-067XU
CENTER_NAME    = EARTH
REF_FRAME      = TEME
TIME_SYSTEM    = UTC
MEAN_ELEMENT_THEORY = SGP/SGP4

EPOCH          = 2025-12-14T18:53:29.082624
MEAN_MOTION    = 15.51834730
ECCENTRICITY   = .00042823
INCLINATION    = 51.6294
RA_OF_ASC_NODE = 132.2114
ARG_OF_PERICENTER = 238.4154
MEAN_ANOMALY   = 121.6418

EPHEMERIS_TYPE = 0
CLASSIFICATION_TYPE = U
NORAD_CAT_ID   = 66908
ELEMENT_SET_NO = 999
REV_AT_EPOCH   = 193
BSTAR          = .94476318E-3
MEAN_MOTION_DOT = .57527E-3
MEAN_MOTION_DDOT = 0

CCSDS_OMM_VERS = 2.0
CREATION_DATE  = 
ORIGINATOR     = 

OBJECT_NAME    = SILVERSAT
OBJECT_ID      = 1998-067XV
CENTER_NAME    = EARTH
REF_FRAME      = TEME
TIME_SYSTEM    = UTC
MEAN_ELEMENT_THEORY = SGP/SGP4

EPOCH          = 2025-12-14T21:58:11.659008
MEAN_MOTION    = 15.51959159
ECCENTRICITY   = .00041685
INCLINATION    = 51.6297
RA_OF_ASC_NODE = 131.5680
ARG_OF_PERICENTER = 239.8452
MEAN_ANOMALY   = 120.2125

EPHEMERIS_TYPE = 0
CLASSIFICATION_TYPE = U
NORAD_CAT_ID   = 66909
ELEMENT_SET_NO = 999
REV_AT_EPOCH   = 195
BSTAR          = .78463431E-3
MEAN_MOTION_DOT = .47853E-3
MEAN_MOTION_DDOT = 0

CCSDS_OMM_VERS = 2.0
CREATION_DATE  = 
ORIGINATOR     = 

OBJECT_NAME    = 1998-067XW
OBJECT_ID      = 1998-067XW
CENTER_NAME    = EARTH
REF_FRAME      = TEME
TIME_SYSTEM    = UTC
MEAN_ELEMENT_THEORY = SGP/SGP4

EPOCH          = 2025-12-14T23:28:33.119904
MEAN_MOTION    = 15.52053849
ECCENTRICITY   = .00048717
INCLINATION    = 51.6296
RA_OF_ASC_NODE = 131.2373
ARG_OF_PERICENTER = 219.7417
MEAN_ANOMALY   = 140.3216

EPHEMERIS_TYPE = 0
CLASSIFICATION_TYPE = U
NORAD_CAT_ID   = 66910
ELEMENT_SET_NO = 999
REV_AT_EPOCH   = 196
BSTAR          = .71781086E-3
MEAN_MOTION_DOT = .4387E-3
MEAN_MOTION_DDOT = 0

CCSDS_OMM_VERS = 2.0
CREATION_DATE  = 
ORIGINATOR     = 

OBJECT_NAME    = 1998-067XX
OBJECT_ID      = 1998-067XX
CENTER_NAME    = EARTH
REF_FRAME      = TEME
TIME_SYSTEM    = UTC
MEAN_ELEMENT_THEORY = SGP/SGP4

EPOCH          = 2025-12-14T18:48:49.806720
MEAN_MOTION    = 15.52344469
ECCENTRICITY   = .00045838
INCLINATION    = 51.6294
RA_OF_ASC_NODE = 132.1898
ARG_OF_PERICENTER = 221.2762
MEAN_ANOMALY   = 138.7882

EPHEMERIS_TYPE = 0
CLASSIFICATION_TYPE = U
NORAD_CAT_ID   = 66911
ELEMENT_SET_NO = 999
REV_AT_EPOCH   = 192
BSTAR          = .10081663E-2
MEAN_MOTION_DOT = .62604E-3
MEAN_MOTION_DDOT = 0

CCSDS_OMM_VERS = 2.0
CREATION_DATE  = 
ORIGINATOR     = 

OBJECT_NAME    = 1998-067XY
OBJECT_ID      = 1998-067XY
CENTER_NAME    = EARTH
REF_FRAME      = TEME
TIME_SYSTEM    = UTC
MEAN_ELEMENT_THEORY = SGP/SGP4

EPOCH          = 2025-12-14T18:56:09.789216
MEAN_MOTION    = 15.51365838
ECCENTRICITY   = .00043478
INCLINATION    = 51.6301
RA_OF_ASC_NODE = 132.2238
ARG_OF_PERICENTER = 234.7392
MEAN_ANOMALY   = 125.3191

EPHEMERIS_TYPE = 0
CLASSIFICATION_TYPE = U
NORAD_CAT_ID   = 66912
ELEMENT_SET_NO = 999
REV_AT_EPOCH   = 192
BSTAR          = .71977927E-3
MEAN_MOTION_DOT = .42904E-3
MEAN_MOTION_DDOT = 0

CCSDS_OMM_VERS = 2.0
CREATION_DATE  = 
ORIGINATOR     = 

OBJECT_NAME    = 2025-284A
OBJECT_ID      = 2025-284A
CENTER_NAME    = EARTH
REF_FRAME      = TEME
TIME_SYSTEM    = UTC
MEAN_ELEMENT_THEORY = SGP/SGP4

EPOCH          = 2025-12-14T21:39:39.043008
MEAN_MOTION    = 15.19011360
ECCENTRICITY   = .00119986
INCLINATION    = 80.4039
RA_OF_ASC_NODE = 127.0231
ARG_OF_PERICENTER = 197.3946
MEAN_ANOMALY   = 162.6873

EPHEMERIS_TYPE = 0
CLASSIFICATION_TYPE = U
NORAD_CAT_ID   = 66913
ELEMENT_SET_NO = 999
REV_AT_EPOCH   = 145
BSTAR          = .3431935E-3
MEAN_MOTION_DOT = .7216E-4
MEAN_MOTION_DDOT = 0

CCSDS_OMM_VERS = 2.0
CREATION_DATE  = 
ORIGINATOR     = 

OBJECT_NAME    = 2025-284B
OBJECT_ID      = 2025-284B
CENTER_NAME    = EARTH
REF_FRAME      = TEME
TIME_SYSTEM    = UTC
MEAN_ELEMENT_THEORY = SGP/SGP4

EPOCH          = 2025-12-14T23:14:02.207040
MEAN_MOTION    = 15.18963049
ECCENTRICITY   = .00082672
INCLINATION    = 80.4047
RA_OF_ASC_NODE = 126.9414
ARG_OF_PERICENTER = 239.6896
MEAN_ANOMALY   = 120.3514

EPHEMERIS_TYPE = 0
CLASSIFICATION_TYPE = U
NORAD_CAT_ID   = 66914
ELEMENT_SET_NO = 999
REV_AT_EPOCH   = 146
BSTAR          = .3383275E-3
MEAN_MOTION_DOT = .7097E-4
MEAN_MOTION_DDOT = 0

CCSDS_OMM_VERS = 2.0
CREATION_DATE  = 
ORIGINATOR     = 

OBJECT_NAME    = HULIANWANG DIGUI-105
OBJECT_ID      = 2025-285A
CENTER_NAME    = EARTH
REF_FRAME      = TEME
TIME_SYSTEM    = UTC
MEAN_ELEMENT_THEORY = SGP/SGP4

EPOCH          = 2025-12-14T21:49:49.229184
MEAN_MOTION    = 14.03715906
ECCENTRICITY   = .0007951
INCLINATION    = 50.0052
RA_OF_ASC_NODE = 108.4362
ARG_OF_PERICENTER = 289.9796
MEAN_ANOMALY   = 70.0252

EPHEMERIS_TYPE = 0
CLASSIFICATION_TYPE = U
NORAD_CAT_ID   = 66915
ELEMENT_SET_NO = 999
REV_AT_EPOCH   = 121
BSTAR          = .12473121E-3
MEAN_MOTION_DOT = .46E-6
MEAN_MOTION_DDOT = 0

CCSDS_OMM_VERS = 2.0
CREATION_DATE  = 
ORIGINATOR     = 

OBJECT_NAME    = HULIANWANG DIGUI-106
OBJECT_ID      = 2025-285B
CENTER_NAME    = EARTH
REF_FRAME      = TEME
TIME_SYSTEM    = UTC
MEAN_ELEMENT_THEORY = SGP/SGP4

EPOCH          = 2025-12-14T23:28:16.711680
MEAN_MOTION    = 14.04044141
ECCENTRICITY   = .00067006
INCLINATION    = 50.0054
RA_OF_ASC_NODE = 108.1323
ARG_OF_PERICENTER = 284.1720
MEAN_ANOMALY   = 75.8440

EPHEMERIS_TYPE = 0
CLASSIFICATION_TYPE = U
NORAD_CAT_ID   = 66916
ELEMENT_SET_NO = 999
REV_AT_EPOCH   = 122
BSTAR          = .14334174E-4
MEAN_MOTION_DOT = -.129E-5
MEAN_MOTION_DDOT = 0

